*******************************************************************************
 Revised: July 31, 2013                  Sun                                 10

 PHYSICAL PROPERTIES (updated 2018-Aug-15):
  GM, km^3/s^2          = 132712440041.93938  Mass, 10^24 kg        = ~1988500
  Vol. mean radius, km  = 695700              Volume, 10^12 km^3    = 1412000
  Solar radius (IAU)    = 696000 km           Mean density, g/cm^3  = 1.408
  Radius (photosphere)  = 696500 km           Angular diam at 1 AU  = 1919.3"
  Photosphere temp., K  = 6600 (bottom)       Photosphere temp., K  = 4400(top)
  Photospheric depth    = ~500 km             Chromospheric depth   = ~2500 km
  Flatness, f           = 0.00005             Adopted sid. rot. per.= 25.38 d
  Surface gravity       =  274.0 m/s^2        Escape speed, km/s    =  617.7
  Pole (RA,DEC), deg.   = (286.13, 63.87)     Obliquity to ecliptic = 7.25 deg.
  Solar constant (1 AU) = 1367.6 W/m^2        Luminosity, 10^24 J/s = 382.8
  Mass-energy conv rate = 4.260 x 10^9 kg/s   Effective temp, K     = 5772
  Sunspot cycle         = 11.4 yr             Cycle 24 sunspot min. = 2008 A.D.

  Motion relative to nearby stars = apex : R.A.= 271 deg.; DEC.= +30 deg.
                                    speed: 19.4 km/s (0.0112 au/day)
  Motion relative to 2.73K BB/CBR = apex : l= 264.7 +- 0.8; b= 48.2 +- 0.5 deg.
                                    speed: 369 +-11 km/s
*******************************************************************************


*******************************************************************************
Ephemeris / WWW_USER Fri Jan 27 09:12:15 2023 Pasadena, USA      / Horizons    
*******************************************************************************
Target body name: Sun (10)                        {source: DE441}
Center body name: Earth (399)                     {source: DE441}
Center-site name: (user defined site below)
*******************************************************************************
Start time      : A.D. 2000-Jan-01 00:00:00.0000 UT      
Stop  time      : A.D. 2099-Dec-31 00:00:00.0000 UT      
Step-size       : 1440 minutes
*******************************************************************************
Target pole/equ : IAU_SUN                         {East-longitude positive}
Target radii    : 696000.0 x 696000.0 x 696000.0 k{Equator, meridian, pole}    
Center geodetic : 8.53330000,47.3667000,0.0000000 {E-lon(deg),Lat(deg),Alt(km)}
Center cylindric: 8.53330000,4327.78336,4669.4727 {E-lon(deg),Dxy(km),Dz(km)}
Center pole/equ : ITRF93                          {East-longitude positive}
Center radii    : 6378.1 x 6378.1 x 6356.8 km     {Equator, meridian, pole}    
Target primary  : Sun (R_eq= 696000.000) km
Vis. interferer : MOON (R_eq= 1737.400) km        {source: DE441}
Rel. light bend : Sun                             {source: DE441}
Rel. lght bnd GM: 1.3271E+11 km^3/s^2                                          
Atmos refraction: NO (AIRLESS)
RA format       : DEG
Time format     : BOTH
EOP file        : eop.230125.p230420                                           
EOP coverage    : DATA-BASED 1962-JAN-20 TO 2023-JAN-25. PREDICTS-> 2023-APR-19
Units conversion: 1 au= 149597870.700 km, c= 299792.458 km/s, 1 day= 86400.0 s 
Table cut-offs 1: Elevation (-90.0deg=NO ),Airmass (>38.000=NO), Daylight (NO )
Table cut-offs 2: Solar elongation (  0.0,180.0=NO ),Local Hour Angle( 0.0=NO )
Table cut-offs 3: RA/DEC angular rate (     0.0=NO )                           
*******************************************************************************
 Date__(UT)__HR:MN Date_________JDUT     R.A._(a-appar)_DEC.  L_Ap_Sid_Time
***************************************************************************
$$SOE
 2092-Sep-20 00:00 2485410.500000000  m  178.21718   0.77035   0.5621211694
 2092-Sep-21 00:00 2485411.500000000  m  179.11358   0.38213   0.6278300010
 2092-Sep-22 00:00 2485412.500000000  m  180.01046  -0.00641   0.6935393457
 2092-Sep-23 00:00 2485413.500000000  m  180.90791  -0.39519   0.7592490943
 2092-Sep-24 00:00 2485414.500000000  m  181.80601  -0.78412   0.8249590871
 2092-Sep-25 00:00 2485415.500000000  m  182.70485  -1.17310   0.8906691270
 2092-Sep-26 00:00 2485416.500000000  m  183.60451  -1.56203   0.9563789976
 2092-Sep-27 00:00 2485417.500000000     184.50506  -1.95081   1.0220884889
 2092-Sep-28 00:00 2485418.500000000     185.40659  -2.33936   1.0877974333
 2092-Sep-29 00:00 2485419.500000000     186.30917  -2.72757   1.1535057458
 2092-Sep-30 00:00 2485420.500000000     187.21287  -3.11533   1.2192134737
 2092-Oct-01 00:00 2485421.500000000     188.11776  -3.50256   1.2849208278
 2092-Oct-02 00:00 2485422.500000000     189.02393  -3.88914   1.3506281710
 2092-Oct-03 00:00 2485423.500000000     189.93143  -4.27497   1.4163359341
 2092-Oct-04 00:00 2485424.500000000     190.84035  -4.65996   1.4820444803
 2092-Oct-05 00:00 2485425.500000000     191.75074  -5.04398   1.5477539734
 2092-Oct-06 00:00 2485426.500000000     192.66268  -5.42695   1.6134643147
 2092-Oct-07 00:00 2485427.500000000     193.57623  -5.80875   1.6791751783
 2092-Oct-08 00:00 2485428.500000000     194.49146  -6.18927   1.7448861210
 2092-Oct-09 00:00 2485429.500000000     195.40844  -6.56841   1.8105967092
 2092-Oct-10 00:00 2485430.500000000     196.32725  -6.94606   1.8763066280
 2092-Oct-11 00:00 2485431.500000000  m  197.24798  -7.32212   1.9420157384
 2092-Oct-12 00:00 2485432.500000000  m  198.17071  -7.69649   2.0077240876
 2092-Oct-13 00:00 2485433.500000000  m  199.09555  -8.06907   2.0734318737
 2092-Oct-14 00:00 2485434.500000000  m  200.02257  -8.43976   2.1391393859
 2092-Oct-15 00:00 2485435.500000000  m  200.95189  -8.80846   2.2048469349
 2092-Oct-16 00:00 2485436.500000000  m  201.88358  -9.17508   2.2705547931
 2092-Oct-17 00:00 2485437.500000000  m  202.81775  -9.53951   2.3362631502
 2092-Oct-18 00:00 2485438.500000000  m  203.75447  -9.90165   2.4019720906
 2092-Oct-19 00:00 2485439.500000000  m  204.69383 -10.26141   2.4676815969
 2092-Oct-20 00:00 2485440.500000000  m  205.63590 -10.61867   2.5333915699
 2092-Oct-21 00:00 2485441.500000000  m  206.58076 -10.97334   2.5991018548
 2092-Oct-22 00:00 2485442.500000000  m  207.52848 -11.32530   2.6648122612
 2092-Oct-23 00:00 2485443.500000000  m  208.47912 -11.67446   2.7305225808
 2092-Oct-24 00:00 2485444.500000000  m  209.43273 -12.02070   2.7962326094
 2092-Oct-25 00:00 2485445.500000000  m  210.38938 -12.36391   2.8619421757
 2092-Oct-26 00:00 2485446.500000000     211.34913 -12.70397   2.9276511724
 2092-Oct-27 00:00 2485447.500000000     212.31202 -13.04079   2.9933595921
 2092-Oct-28 00:00 2485448.500000000     213.27810 -13.37424   3.0590675612
 2092-Oct-29 00:00 2485449.500000000     214.24741 -13.70421   3.1247753654
 2092-Oct-30 00:00 2485450.500000000     215.21999 -14.03059   3.1904834235
 2092-Oct-31 00:00 2485451.500000000     216.19587 -14.35326   3.2561921808
 2092-Nov-01 00:00 2485452.500000000     217.17508 -14.67211   3.3219019427
 2092-Nov-02 00:00 2485453.500000000     218.15763 -14.98701   3.3876127305
 2092-Nov-03 00:00 2485454.500000000     219.14353 -15.29785   3.4533242543
 2092-Nov-04 00:00 2485455.500000000     220.13278 -15.60451   3.5190360205
 2092-Nov-05 00:00 2485456.500000000     221.12539 -15.90687   3.5847475103
 2092-Nov-06 00:00 2485457.500000000     222.12138 -16.20481   3.6504583387
 2092-Nov-07 00:00 2485458.500000000     223.12077 -16.49821   3.7161683294
 2092-Nov-08 00:00 2485459.500000000     224.12356 -16.78697   3.7818775134
 2092-Nov-09 00:00 2485460.500000000  m  225.12979 -17.07096   3.8475860799
 2092-Nov-10 00:00 2485461.500000000  m  226.13947 -17.35009   3.9132943094
 2092-Nov-11 00:00 2485462.500000000  m  227.15264 -17.62425   3.9790025098
 2092-Nov-12 00:00 2485463.500000000  m  228.16931 -17.89332   4.0447109589
 2092-Nov-13 00:00 2485464.500000000  m  229.18949 -18.15721   4.1104198648
 2092-Nov-14 00:00 2485465.500000000  m  230.21319 -18.41581   4.1761293445
 2092-Nov-15 00:00 2485466.500000000  m  231.24043 -18.66903   4.2418394144
 2092-Nov-16 00:00 2485467.500000000  m  232.27118 -18.91675   4.3075499993
 2092-Nov-17 00:00 2485468.500000000  m  233.30546 -19.15888   4.3732609517
 2092-Nov-18 00:00 2485469.500000000  m  234.34323 -19.39532   4.4389720801
 2092-Nov-19 00:00 2485470.500000000  m  235.38448 -19.62596   4.5046831749
 2092-Nov-20 00:00 2485471.500000000  m  236.42919 -19.85070   4.5703940303
 2092-Nov-21 00:00 2485472.500000000  m  237.47732 -20.06945   4.6361044714
 2092-Nov-22 00:00 2485473.500000000  m  238.52884 -20.28210   4.7018143801
 2092-Nov-23 00:00 2485474.500000000  m  239.58369 -20.48856   4.7675237260
 2092-Nov-24 00:00 2485475.500000000     240.64184 -20.68872   4.8332325856
 2092-Nov-25 00:00 2485476.500000000     241.70323 -20.88251   4.8989411620
 2092-Nov-26 00:00 2485477.500000000     242.76779 -21.06981   4.9646497911
 2092-Nov-27 00:00 2485478.500000000     243.83546 -21.25055   5.0303589021
 2092-Nov-28 00:00 2485479.500000000     244.90617 -21.42462   5.0960689004
 2092-Nov-29 00:00 2485480.500000000     245.97981 -21.59196   5.1617799984
 2092-Nov-30 00:00 2485481.500000000     247.05628 -21.75246   5.2274920792
 2092-Dec-01 00:00 2485482.500000000     248.13546 -21.90605   5.2932047009
 2092-Dec-02 00:00 2485483.500000000     249.21723 -22.05265   5.3589172601
 2092-Dec-03 00:00 2485484.500000000     250.30146 -22.19216   5.4246292178
 2092-Dec-04 00:00 2485485.500000000     251.38804 -22.32452   5.4903402717
 2092-Dec-05 00:00 2485486.500000000     252.47686 -22.44965   5.5560503932
 2092-Dec-06 00:00 2485487.500000000     253.56781 -22.56748   5.6217597670
 2092-Dec-07 00:00 2485488.500000000  m  254.66079 -22.67795   5.6874686895
 2092-Dec-08 00:00 2485489.500000000  m  255.75569 -22.78100   5.7531774867
 2092-Dec-09 00:00 2485490.500000000  m  256.85240 -22.87657   5.8188864544
 2092-Dec-10 00:00 2485491.500000000  m  257.95084 -22.96463   5.8845958183
